{"type": "FeatureCollection", "features": [ {"type": "Feature", "properties": {"norad_id": 44622, "name": "GAOFEN-10R", "group": "resource", "lat": -33.61880946886548, "lon": 109.36222861311904, "alt_km": 632.2182985384625, "timestamp": "2025-12-13T05:42:57.154845+00:00", "meta": {"OBJECT_NAME": "GAOFEN-10R", "OBJECT_ID": "2019-066A", "EPOCH": "2025-12-12T07:42:01.160064", "MEAN_MOTION": 14.82790522, "ECCENTRICITY": 0.00079106, "INCLINATION": 98.0276, "RA_OF_ASC_NODE": 293.8255, "ARG_OF_PERICENTER": 43.258, "MEAN_ANOMALY": 316.9253, "EPHEMERIS_TYPE": 0, "CLASSIFICATION_TYPE": "U", "NORAD_CAT_ID": 44622, "ELEMENT_SET_NO": 999, "REV_AT_EPOCH": 33468, "BSTAR": 0.00034391389, "MEAN_MOTION_DOT": 2.728e-05, "MEAN_MOTION_DDOT": 0}, "tle": {"line1": "1 44622U 19066A   25346.32084676  .00002728  00000+0  34391-3 0  9997", "line2": "2 44622  98.0276 293.8255 0007910  43.2580 316.9253 14.82790522334688"}}, "geometry": {"type": "Point", "coordinates": [109.36222861311904, -33.61880946886548]}}, {"type": "Feature", "properties": {"norad_id": 44804, "name": "CARTOSAT-3", "group": "resource", "lat": 79.3554341995806, "lon": 2.6250397978471427, "alt_km": 491.2294338710826, "timestamp": "2025-12-13T05:42:57.154856+00:00", "meta": {"OBJECT_NAME": "CARTOSAT-3", "OBJECT_ID": "2019-081A", "EPOCH": "2025-12-12T07:13:25.199040", "MEAN_MOTION": 15.19149437, "ECCENTRICITY": 0.00141979, "INCLINATION": 97.4586, "RA_OF_ASC_NODE": 45.8898, "ARG_OF_PERICENTER": 85.0204, "MEAN_ANOMALY": 275.2651, "EPHEMERIS_TYPE": 0, "CLASSIFICATION_TYPE": "U", "NORAD_CAT_ID": 44804, "ELEMENT_SET_NO": 999, "REV_AT_EPOCH": 33509, "BSTAR": 0.0004516344, "MEAN_MOTION_DOT": 9.452e-05, "MEAN_MOTION_DDOT": 0}, "tle": {"line1": "1 44804U 19081A   25346.30098610  .00009452  00000+0  45163-3 0  9997", "line2": "2 44804  97.4586  45.8898 0014197  85.0204 275.2651 15.19149437335096"}}, "geometry": {"type": "Point", "coordinates": [2.6250397978471427, 79.3554341995806]}}, {"type": "Feature", "properties": {"norad_id": 44819, "name": "GAOFEN-12 01", "group": "resource", "lat": 61.87052008309345, "lon": -171.6123979595288, "alt_km": 621.6338796265172, "timestamp": "2025-12-13T05:42:57.154867+00:00", "meta": {"OBJECT_NAME": "GAOFEN-12 01", "OBJECT_ID": "2019-082A", "EPOCH": "2025-12-12T06:28:56.798976", "MEAN_MOTION": 14.8065649, "ECCENTRICITY": 0.00013038, "INCLINATION": 97.8126, "RA_OF_ASC_NODE": 352.5634, "ARG_OF_PERICENTER": 236.1927, "MEAN_ANOMALY": 123.9161, "EPHEMERIS_TYPE": 0, "CLASSIFICATION_TYPE": "U", "NORAD_CAT_ID": 44819, "ELEMENT_SET_NO": 999, "REV_AT_EPOCH": 32643, "BSTAR": 0.00011410597, "MEAN_MOTION_DOT": 8.26e-06, "MEAN_MOTION_DDOT": 0}, "tle": {"line1": "1 44819U 19082A   25346.27010184  .00000826  00000+0  11411-3 0  9995", "line2": "2 44819  97.8126 352.5634 0001303 236.1927 123.9161 14.80656490326430"}}, "geometry": {"type": "Point", "coordinates": [-171.6123979595288, 61.87052008309345]}}, {"type": "Feature", "properties": {"norad_id": 44873, "name": "CSG-1", "group": "resource", "lat": -50.145735745643584, "lon": -20.996959713185017, "alt_km": 630.2793015919788, "timestamp": "2025-12-13T05:42:57.154877+00:00", "meta": {"OBJECT_NAME": "CSG-1", "OBJECT_ID": "2019-092A", "EPOCH": "2025-12-12T07:36:53.912160", "MEAN_MOTION": 14.82163627, "ECCENTRICITY": 0.00014414, "INCLINATION": 97.881, "RA_OF_ASC_NODE": 167.6478, "ARG_OF_PERICENTER": 84.9544, "MEAN_ANOMALY": 275.1833, "EPHEMERIS_TYPE": 0, "CLASSIFICATION_TYPE": "U", "NORAD_CAT_ID": 44873, "ELEMENT_SET_NO": 999, "REV_AT_EPOCH": 32379, "BSTAR": 0.00013576561, "MEAN_MOTION_DOT": 1.029e-05, "MEAN_MOTION_DDOT": 0}, "tle": {"line1": "1 44873U 19092A   25346.31729065  .00001029  00000+0  13577-3 0  9997", "line2": "2 44873  97.8810 167.6478 0001441  84.9544 275.1833 14.82163627323797"}}, "geometry": {"type": "Point", "coordinates": [-20.996959713185017, -50.145735745643584]}}, {"type": "Feature", "properties": {"norad_id": 46277, "name": "NEMO-HD", "group": "resource", "lat": 45.76380492457692, "lon": -126.1878990014831, "alt_km": 440.9805565938168, "timestamp": "2025-12-13T05:42:57.154888+00:00", "meta": {"OBJECT_NAME": "NEMO-HD", "OBJECT_ID": "2020-061F", "EPOCH": "2025-12-12T07:18:35.337024", "MEAN_MOTION": 15.40312743, "ECCENTRICITY": 0.00019051, "INCLINATION": 97.2213, "RA_OF_ASC_NODE": 45.4078, "ARG_OF_PERICENTER": 57.1976, "MEAN_ANOMALY": 302.9453, "EPHEMERIS_TYPE": 0, "CLASSIFICATION_TYPE": "U", "NORAD_CAT_ID": 46277, "ELEMENT_SET_NO": 999, "REV_AT_EPOCH": 29317, "BSTAR": 0.00039165599, "MEAN_MOTION_DOT": 0.00015719, "MEAN_MOTION_DDOT": 0}, "tle": {"line1": "1 46277U 20061F   25346.30457566  .00015719  00000+0  39166-3 0  9991", "line2": "2 46277  97.2213  45.4078 0001905  57.1976 302.9453 15.40312743293178"}}, "geometry": {"type": "Point", "coordinates": [-126.1878990014831, 45.76380492457692]}}, {"type": "Feature", "properties": {"norad_id": 46984, "name": "SENTINEL-6A", "group": "resource", "lat": -50.27210110568378, "lon": 13.622144965377741, "alt_km": 1338.6065860673225, "timestamp": "2025-12-13T05:42:57.154901+00:00", "meta": {"OBJECT_NAME": "SENTINEL-6A", "OBJECT_ID": "2020-086A", "EPOCH": "2025-12-11T20:37:32.818368", "MEAN_MOTION": 12.80930603, "ECCENTRICITY": 0.0007741, "INCLINATION": 66.0388, "RA_OF_ASC_NODE": 164.1366, "ARG_OF_PERICENTER": 269.2307, "MEAN_ANOMALY": 90.7821, "EPHEMERIS_TYPE": 0, "CLASSIFICATION_TYPE": "U", "NORAD_CAT_ID": 46984, "ELEMENT_SET_NO": 999, "REV_AT_EPOCH": 23633, "BSTAR": 0.00012281, "MEAN_MOTION_DOT": -3.3e-07, "MEAN_MOTION_DDOT": 0}, "tle": {"line1": "1 46984U 20086A   25345.85940762 -.00000033  00000+0  12281-3 0  9990", "line2": "2 46984  66.0388 164.1366 0007741 269.2307  90.7821 12.80930603236335"}}, "geometry": {"type": "Point", "coordinates": [13.622144965377741, -50.27210110568378]}}, {"type": "Feature", "properties": {"norad_id": 48079, "name": "GAOFEN-12 02", "group": "resource", "lat": 50.81504076469762, "lon": 171.15827488106942, "alt_km": 620.3688505223827, "timestamp": "2025-12-13T05:42:57.154912+00:00", "meta": {"OBJECT_NAME": "GAOFEN-12 02", "OBJECT_ID": "2021-026A", "EPOCH": "2025-12-12T06:25:55.100640", "MEAN_MOTION": 14.80674302, "ECCENTRICITY": 0.00035334, "INCLINATION": 97.9852, "RA_OF_ASC_NODE": 340.2767, "ARG_OF_PERICENTER": 102.1969, "MEAN_ANOMALY": 257.9639, "EPHEMERIS_TYPE": 0, "CLASSIFICATION_TYPE": "U", "NORAD_CAT_ID": 48079, "ELEMENT_SET_NO": 999, "REV_AT_EPOCH": 25410, "BSTAR": 0.00011770971, "MEAN_MOTION_DOT": 8.52e-06, "MEAN_MOTION_DDOT": 0}, "tle": {"line1": "1 48079U 21026A   25346.26799885  .00000852  00000+0  11771-3 0  9997", "line2": "2 48079  97.9852 340.2767 0003533 102.1969 257.9639 14.80674302254109"}}, "geometry": {"type": "Point", "coordinates": [171.15827488106942, 50.81504076469762]}}, {"type": "Feature", "properties": {"norad_id": 48268, "name": "PLEIADES NEO 3", "group": "resource", "lat": -17.148315979012857, "lon": -122.78209200948864, "alt_km": 629.2518104218634, "timestamp": "2025-12-13T05:42:57.154923+00:00", "meta": {"OBJECT_NAME": "PLEIADES NEO 3", "OBJECT_ID": "2021-034A", "EPOCH": "2025-12-12T07:45:31.028256", "MEAN_MOTION": 14.81671609, "ECCENTRICITY": 0.00014321, "INCLINATION": 97.8942, "RA_OF_ASC_NODE": 58.7701, "ARG_OF_PERICENTER": 95.6631, "MEAN_ANOMALY": 264.4745, "EPHEMERIS_TYPE": 0, "CLASSIFICATION_TYPE": "U", "NORAD_CAT_ID": 48268, "ELEMENT_SET_NO": 999, "REV_AT_EPOCH": 24998, "BSTAR": 0.0002038166, "MEAN_MOTION_DOT": 1.552e-05, "MEAN_MOTION_DDOT": 0}, "tle": {"line1": "1 48268U 21034A   25346.32327579  .00001552  00000+0  20382-3 0  9996", "line2": "2 48268  97.8942  58.7701 0001432  95.6631 264.4745 14.81671609249984"}}, "geometry": {"type": "Point", "coordinates": [-122.78209200948864, -17.148315979012857]}}, {"type": "Feature", "properties": {"norad_id": 49070, "name": "PLEIADES NEO 4", "group": "resource", "lat": 16.95240239375807, "lon": 57.24373443528556, "alt_km": 624.3447631814643, "timestamp": "2025-12-13T05:42:57.154934+00:00", "meta": {"OBJECT_NAME": "PLEIADES NEO 4", "OBJECT_ID": "2021-073E", "EPOCH": "2025-12-12T08:34:07.569120", "MEAN_MOTION": 14.81676895, "ECCENTRICITY": 0.00012379, "INCLINATION": 97.8941, "RA_OF_ASC_NODE": 58.7994, "ARG_OF_PERICENTER": 92.1719, "MEAN_ANOMALY": 267.9635, "EPHEMERIS_TYPE": 0, "CLASSIFICATION_TYPE": "U", "NORAD_CAT_ID": 49070, "ELEMENT_SET_NO": 999, "REV_AT_EPOCH": 23370, "BSTAR": 3.8133e-06, "MEAN_MOTION_DOT": -2.2e-07, "MEAN_MOTION_DDOT": 0}, "tle": {"line1": "1 49070U 21073E   25346.35703205 -.00000022  00000+0  38133-5 0  9995", "line2": "2 49070  97.8941  58.7994 0001237  92.1719 267.9635 14.81676895233702"}}, "geometry": {"type": "Point", "coordinates": [57.24373443528556, 16.95240239375807]}}, {"type": "Feature", "properties": {"norad_id": 49260, "name": "LANDSAT 9", "group": "resource", "lat": -10.147760388352413, "lon": 56.82260791075888, "alt_km": 706.8430041128931, "timestamp": "2025-12-13T05:42:57.154945+00:00", "meta": {"OBJECT_NAME": "LANDSAT 9", "OBJECT_ID": "2021-088A", "EPOCH": "2025-12-12T05:02:29.593536", "MEAN_MOTION": 14.57097277, "ECCENTRICITY": 0.00011797, "INCLINATION": 98.2093, "RA_OF_ASC_NODE": 54.3289, "ARG_OF_PERICENTER": 88.7796, "MEAN_ANOMALY": 271.3537, "EPHEMERIS_TYPE": 0, "CLASSIFICATION_TYPE": "U", "NORAD_CAT_ID": 49260, "ELEMENT_SET_NO": 999, "REV_AT_EPOCH": 22377, "BSTAR": 0.00017165995, "MEAN_MOTION_DOT": 7.28e-06, "MEAN_MOTION_DDOT": 0}, "tle": {"line1": "1 49260U 21088A   25346.21006474  .00000728  00000+0  17166-3 0  9994", "line2": "2 49260  98.2093  54.3289 0001179  88.7796 271.3537 14.57097277223776"}}, "geometry": {"type": "Point", "coordinates": [56.82260791075888, -10.147760388352413]}}]}